start=new Date('2022-02-25T00:00:00.000Z').valueOf();
sats=[{"CLASSIFICATION_TYPE":"U","CENTER_NAME":"EARTH","BSTAR":"0.00003329600000","PERIAPSIS":"546.154","FILE":"3320325","PERIOD":"95.592","SITE":"AFETR","DECAY_DATE":null,"SEMIMAJOR_AXIS":"6925.353","OBJECT_NAME":"STARLINK-2707","OBJECT_TYPE":"PAYLOAD","APOAPSIS":"548.282","COUNTRY_CODE":"US","MEAN_ANOMALY":"280.9446","ECCENTRICITY":"0.00015360","RA_OF_ASC_NODE":"247.8474","MEAN_ELEMENT_THEORY":"SGP4","ELEMENT_SET_NO":"999","NORAD_CAT_ID":"48669","INCLINATION":"53.0526","LAUNCH_DATE":"2021-05-26","EPHEMERIS_TYPE":"0","RCS_SIZE":"LARGE","TLE_LINE1":"1 48669U 21044AH  22055.86875765  .00000214  00000-0  33296-4 0  9994","MEAN_MOTION":"15.06398492","GP_ID":"196903562","EPOCH":"2022-02-24T20:51:00.660960","MEAN_MOTION_DOT":"0.00000214","TIME_SYSTEM":"UTC","REV_AT_EPOCH":"4170","TLE_LINE2":"2 48669  53.0526 247.8474 0001536  79.1716 280.9446 15.06398492 41700","MEAN_MOTION_DDOT":"0.0000000000000","ARG_OF_PERICENTER":"79.1716","OBJECT_ID":"2021-044AH","REF_FRAME":"TEME"},{"PERIAPSIS":"546.128","FILE":"3320325","PERIOD":"95.592","SITE":"AFETR","CLASSIFICATION_TYPE":"U","CENTER_NAME":"EARTH","BSTAR":"0.00011391000000","APOAPSIS":"548.323","OBJECT_TYPE":"PAYLOAD","COUNTRY_CODE":"US","DECAY_DATE":null,"SEMIMAJOR_AXIS":"6925.361","OBJECT_NAME":"STARLINK-2763","MEAN_ELEMENT_THEORY":"SGP4","INCLINATION":"53.0536","NORAD_CAT_ID":"48670","ELEMENT_SET_NO":"999","LAUNCH_DATE":"2021-05-26","MEAN_ANOMALY":"281.4013","ECCENTRICITY":"0.00015850","RA_OF_ASC_NODE":"247.5654","MEAN_MOTION_DOT":"0.00001415","EPOCH":"2022-02-24T22:21:14.731200","REV_AT_EPOCH":"4171","TIME_SYSTEM":"UTC","REF_FRAME":"TEME","TLE_LINE2":"2 48670  53.0536 247.5654 0001585  78.7154 281.4013 15.06396012 41718","MEAN_MOTION_DDOT":"0.0000000000000","OBJECT_ID":"2021-044AJ","ARG_OF_PERICENTER":"78.7154","RCS_SIZE":"LARGE","TLE_LINE1":"1 48670U 21044AJ  22055.93142050  .00001415  00000-0  11391-3 0  9993","MEAN_MOTION":"15.06396012","EPHEMERIS_TYPE":"0","GP_ID":"196904312"},{"CENTER_NAME":"EARTH","CLASSIFICATION_TYPE":"U","BSTAR":"0.00014960000000","PERIAPSIS":"546.016","FILE":"3320325","PERIOD":"95.592","SITE":"AFETR","DECAY_DATE":null,"SEMIMAJOR_AXIS":"6925.351","OBJECT_NAME":"STARLINK-2745","APOAPSIS":"548.416","OBJECT_TYPE":"PAYLOAD","COUNTRY_CODE":"US","MEAN_ANOMALY":"288.5231","ECCENTRICITY":"0.00017330","RA_OF_ASC_NODE":"247.8943","MEAN_ELEMENT_THEORY":"SGP4","NORAD_CAT_ID":"48671","INCLINATION":"53.0551","ELEMENT_SET_NO":"999","LAUNCH_DATE":"2021-05-26","RCS_SIZE":"LARGE","TLE_LINE1":"1 48671U 21044AK  22055.86138395  .00001947  00000-0  14960-3 0  9998","MEAN_MOTION":"15.06399231","EPHEMERIS_TYPE":"0","GP_ID":"196903060","MEAN_MOTION_DOT":"0.00001947","EPOCH":"2022-02-24T20:40:23.573280","REV_AT_EPOCH":"4170","TIME_SYSTEM":"UTC","MEAN_MOTION_DDOT":"0.0000000000000","TLE_LINE2":"2 48671  53.0551 247.8943 0001733  71.5946 288.5231 15.06399231 41700","OBJECT_ID":"2021-044AK","REF_FRAME":"TEME","ARG_OF_PERICENTER":"71.5946"},{"MEAN_MOTION_DOT":"0.00001279","EPOCH":"2022-02-24T22:10:37.801632","REV_AT_EPOCH":"4171","TIME_SYSTEM":"UTC","MEAN_MOTION_DDOT":"0.0000000000000","TLE_LINE2":"2 48672  53.0550 247.6091 0001525  78.8274 281.2886 15.06392794 41719","ARG_OF_PERICENTER":"78.8274","REF_FRAME":"TEME","OBJECT_ID":"2021-044AL","TLE_LINE1":"1 48672U 21044AL  22055.92404863  .00001279  00000-0  10475-3 0  9997","RCS_SIZE":"LARGE","MEAN_MOTION":"15.06392794","EPHEMERIS_TYPE":"0","GP_ID":"196902811","MEAN_ELEMENT_THEORY":"SGP4","INCLINATION":"53.0550","NORAD_CAT_ID":"48672","ELEMENT_SET_NO":"999","LAUNCH_DATE":"2021-05-26","MEAN_ANOMALY":"281.2886","ECCENTRICITY":"0.00015250","RA_OF_ASC_NODE":"247.6091","APOAPSIS":"548.292","OBJECT_TYPE":"PAYLOAD","COUNTRY_CODE":"US","DECAY_DATE":null,"SEMIMAJOR_AXIS":"6925.371","OBJECT_NAME":"STARLINK-2705","FILE":"3320325","PERIAPSIS":"546.180","PERIOD":"95.593","SITE":"AFETR","CLASSIFICATION_TYPE":"U","CENTER_NAME":"EARTH","BSTAR":"0.00010475000000"},{"SITE":"AFETR","PERIOD":"95.592","FILE":"3320325","PERIAPSIS":"546.143","BSTAR":"0.00014842000000","CENTER_NAME":"EARTH","CLASSIFICATION_TYPE":"U","COUNTRY_CODE":"US","OBJECT_TYPE":"PAYLOAD","APOAPSIS":"548.272","OBJECT_NAME":"STARLINK-2711","SEMIMAJOR_AXIS":"6925.342","DECAY_DATE":null,"LAUNCH_DATE":"2021-05-26","ELEMENT_SET_NO":"999","NORAD_CAT_ID":"48673","INCLINATION":"53.0545","MEAN_ELEMENT_THEORY":"SGP4","RA_OF_ASC_NODE":"247.9169","ECCENTRICITY":"0.00015370","MEAN_ANOMALY":"284.0393","MEAN_MOTION_DDOT":"0.0000000000000","TLE_LINE2":"2 48673  53.0545 247.9169 0001537  76.0767 284.0393 15.06402041 41703","ARG_OF_PERICENTER":"76.0767","OBJECT_ID":"2021-044AM","REF_FRAME":"TEME","TIME_SYSTEM":"UTC","REV_AT_EPOCH":"4170","EPOCH":"2022-02-24T20:29:46.184064","MEAN_MOTION_DOT":"0.00001930","GP_ID":"196904062","EPHEMERIS_TYPE":"0","RCS_SIZE":"LARGE","TLE_LINE1":"1 48673U 21044AM  22055.85400676  .00001930  00000-0  14842-3 0  9994","MEAN_MOTION":"15.06402041"},{"OBJECT_NAME":"STARLINK-2712","DECAY_DATE":null,"SEMIMAJOR_AXIS":"6925.349","COUNTRY_CODE":"US","APOAPSIS":"548.383","OBJECT_TYPE":"PAYLOAD","BSTAR":"0.00024538000000","CLASSIFICATION_TYPE":"U","CENTER_NAME":"EARTH","PERIOD":"95.592","SITE":"AFETR","PERIAPSIS":"546.045","FILE":"3320325","RCS_SIZE":"LARGE","TLE_LINE1":"1 48674U 21044AN  22055.91668480  .00003375  00000-0  24538-3 0  9999","MEAN_MOTION":"15.06399933","EPHEMERIS_TYPE":"0","GP_ID":"196903813","REV_AT_EPOCH":"4171","TIME_SYSTEM":"UTC","MEAN_MOTION_DDOT":"0.0000000000000","TLE_LINE2":"2 48674  53.0538 247.6375 0001688  73.9393 286.1782 15.06399933 41711","REF_FRAME":"TEME","OBJECT_ID":"2021-044AN","ARG_OF_PERICENTER":"73.9393","MEAN_MOTION_DOT":"0.00003375","EPOCH":"2022-02-24T22:00:01.566720","ECCENTRICITY":"0.00016880","RA_OF_ASC_NODE":"247.6375","MEAN_ANOMALY":"286.1782","INCLINATION":"53.0538","NORAD_CAT_ID":"48674","ELEMENT_SET_NO":"999","LAUNCH_DATE":"2021-05-26","MEAN_ELEMENT_THEORY":"SGP4"},{"MEAN_MOTION_DOT":"0.00000133","EPOCH":"2022-02-24T21:54:42.884640","MEAN_MOTION_DDOT":"0.0000000000000","TLE_LINE2":"2 48675  53.0538 247.6656 0001687  76.2046 283.9131 15.06393811 41716","OBJECT_ID":"2021-044AP","REF_FRAME":"TEME","ARG_OF_PERICENTER":"76.2046","REV_AT_EPOCH":"4171","TIME_SYSTEM":"UTC","GP_ID":"196902561","TLE_LINE1":"1 48675U 21044AP  22055.91299635  .00000133  00000-0  27825-4 0  9994","RCS_SIZE":"LARGE","MEAN_MOTION":"15.06393811","EPHEMERIS_TYPE":"0","MEAN_ELEMENT_THEORY":"SGP4","LAUNCH_DATE":"2021-05-26","NORAD_CAT_ID":"48675","INCLINATION":"53.0538","ELEMENT_SET_NO":"999","MEAN_ANOMALY":"283.9131","RA_OF_ASC_NODE":"247.6656","ECCENTRICITY":"0.00016870","APOAPSIS":"548.401","OBJECT_TYPE":"PAYLOAD","COUNTRY_CODE":"US","SEMIMAJOR_AXIS":"6925.368","DECAY_DATE":null,"OBJECT_NAME":"STARLINK-2737","PERIAPSIS":"546.064","FILE":"3320325","SITE":"AFETR","PERIOD":"95.593","CENTER_NAME":"EARTH","CLASSIFICATION_TYPE":"U","BSTAR":"0.00002782500000"},{"APOAPSIS":"548.431","OBJECT_TYPE":"PAYLOAD","COUNTRY_CODE":"US","SEMIMAJOR_AXIS":"6925.365","DECAY_DATE":null,"OBJECT_NAME":"STARLINK-2746","FILE":"3320325","PERIAPSIS":"546.029","SITE":"AFETR","PERIOD":"95.592","CLASSIFICATION_TYPE":"U","CENTER_NAME":"EARTH","BSTAR":"0.00011834000000","MEAN_MOTION_DOT":"0.00001481","EPOCH":"2022-02-24T21:49:24.323520","TLE_LINE2":"2 48676  53.0553 247.6755 0001734  68.6924 291.4250 15.06394722 41715","ARG_OF_PERICENTER":"68.6924","MEAN_MOTION_DDOT":"0.0000000000000","OBJECT_ID":"2021-044AQ","REF_FRAME":"TEME","REV_AT_EPOCH":"4171","TIME_SYSTEM":"UTC","GP_ID":"196903311","MEAN_MOTION":"15.06394722","TLE_LINE1":"1 48676U 21044AQ  22055.90930930  .00001481  00000-0  11834-3 0  9993","RCS_SIZE":"LARGE","EPHEMERIS_TYPE":"0","MEAN_ELEMENT_THEORY":"SGP4","LAUNCH_DATE":"2021-05-26","NORAD_CAT_ID":"48676","INCLINATION":"53.0553","ELEMENT_SET_NO":"999","MEAN_ANOMALY":"291.4250","RA_OF_ASC_NODE":"247.6755","ECCENTRICITY":"0.00017340"},{"LAUNCH_DATE":"2021-05-26","INCLINATION":"53.0551","NORAD_CAT_ID":"48677","ELEMENT_SET_NO":"999","MEAN_ELEMENT_THEORY":"SGP4","RA_OF_ASC_NODE":"247.6873","ECCENTRICITY":"0.00015600","MEAN_ANOMALY":"282.4279","TLE_LINE2":"2 48677  53.0551 247.6873 0001560  77.6885 282.4279 15.06397464 41715","MEAN_MOTION_DDOT":"0.0000000000000","ARG_OF_PERICENTER":"77.6885","REF_FRAME":"TEME","OBJECT_ID":"2021-044AR","REV_AT_EPOCH":"4171","TIME_SYSTEM":"UTC","MEAN_MOTION_DOT":"0.00001634","EPOCH":"2022-02-24T21:44:05.101440","GP_ID":"196903563","RCS_SIZE":"LARGE","TLE_LINE1":"1 48677U 21044AR  22055.90561460  .00001634  00000-0  12858-3 0  9999","MEAN_MOTION":"15.06397464","EPHEMERIS_TYPE":"0","SITE":"AFETR","PERIOD":"95.592","FILE":"3320325","PERIAPSIS":"546.141","BSTAR":"0.00012858000000","CLASSIFICATION_TYPE":"U","CENTER_NAME":"EARTH","COUNTRY_CODE":"US","APOAPSIS":"548.302","OBJECT_TYPE":"PAYLOAD","OBJECT_NAME":"STARLINK-2719","SEMIMAJOR_AXIS":"6925.356","DECAY_DATE":null},{"OBJECT_NAME":"STARLINK-2615","DECAY_DATE":null,"SEMIMAJOR_AXIS":"6925.384","COUNTRY_CODE":"US","APOAPSIS":"548.279","OBJECT_TYPE":"PAYLOAD","BSTAR":"0.00000783290000","CENTER_NAME":"EARTH","CLASSIFICATION_TYPE":"U","PERIOD":"95.593","SITE":"AFETR","FILE":"3320325","PERIAPSIS":"546.218","TLE_LINE1":"1 48678U 21044AS  22055.90193719 -.00000165  00000-0  78329-5 0  9994","MEAN_MOTION":"15.06388484","RCS_SIZE":"LARGE","EPHEMERIS_TYPE":"0","GP_ID":"196904313","REV_AT_EPOCH":"4171","TIME_SYSTEM":"UTC","MEAN_MOTION_DDOT":"0.0000000000000","TLE_LINE2":"2 48678  53.0536 247.7126 0001488  72.8645 287.2506 15.06388484 41719","OBJECT_ID":"2021-044AS","REF_FRAME":"TEME","ARG_OF_PERICENTER":"72.8645","MEAN_MOTION_DOT":"-0.00000165","EPOCH":"2022-02-24T21:38:47.373216","ECCENTRICITY":"0.00014880","RA_OF_ASC_NODE":"247.7126","MEAN_ANOMALY":"287.2506","INCLINATION":"53.0536","NORAD_CAT_ID":"48678","ELEMENT_SET_NO":"999","LAUNCH_DATE":"2021-05-26","MEAN_ELEMENT_THEORY":"SGP4"}];
